[{"OBJECT_NAME":"PE2_FLT1 (TYVAK-0261)","OBJECT_ID":"2024-043H","EPOCH":"2026-03-09T22:11:30.005376","MEAN_MOTION":14.96611647,"ECCENTRICITY":0.00060821,"INCLINATION":97.8224,"RA_OF_ASC_NODE":199.4267,"ARG_OF_PERICENTER":22.6188,"MEAN_ANOMALY":337.53,"EPHEMERIS_TYPE":0,"CLASSIFICATION_TYPE":"U","NORAD_CAT_ID":59105,"ELEMENT_SET_NO":999,"REV_AT_EPOCH":10980,"BSTAR":0.00036312112,"MEAN_MOTION_DOT":4.08e-5,"MEAN_MOTION_DDOT":0},{"OBJECT_NAME":"STARLINK-34660","OBJECT_ID":"2025-150L","EPOCH":"2026-03-09T12:35:02.910336","MEAN_MOTION":14.98329869,"ECCENTRICITY":0.00037555,"INCLINATION":70.0018,"RA_OF_ASC_NODE":134.8122,"ARG_OF_PERICENTER":270.2484,"MEAN_ANOMALY":89.8244,"EPHEMERIS_TYPE":0,"CLASSIFICATION_TYPE":"U","NORAD_CAT_ID":64800,"ELEMENT_SET_NO":999,"REV_AT_EPOCH":3649,"BSTAR":7.3251248e-5,"MEAN_MOTION_DOT":7.81e-6,"MEAN_MOTION_DDOT":0}]
